AQUA                    
1 27424U 02022A   26067.93297378  .00001458  00000+0  30081-3 0  9996
2 27424  98.4174  35.2841 0000561  76.8428 350.9319 14.61975174268623
CZ-4B R/B               
1 27432U 02024C   26067.73848118  .00000046  00000+0  46646-4 0  9996
2 27432  98.8840 121.1500 0050523  26.9039  83.9187 14.14547470229108
MIDORI II (ADEOS-II)    
1 27597U 02056A   26067.89364491  .00000425  00000+0  18507-3 0  9992
2 27597  98.7769  26.3657 0001611  43.5759 316.5549 14.29284476210181
H-2A R/B                
1 27601U 02056E   26067.86873071  .00000354  00000+0  13838-3 0  9997
2 27601  98.3202  28.2655 0070455 163.1060 252.0482 14.33760094213992
CZ-4B R/B               
1 28059U 03049C   26067.97091296  .00000515  00000+0  12959-3 0  9993
2 28059  98.6879  62.8475 0047227 233.1473 126.5388 14.55019500186491
CZ-2C R/B               
1 28222U 04012C   26067.71366422  .00077297  00000+0  79991-3 0  9994
2 28222  97.7226 132.9135 0013004 313.5636  46.4542 15.64372887204125
SL-16 R/B               
1 28353U 04021B   26067.89130995 -.00000230  00000+0 -95082-4 0  9997
2 28353  70.9994 234.1679 0004001  10.7623 349.3584 14.14598290122720
CZ-4B R/B               
1 28415U 04035C   26067.66583386  .00011705  00000+0  41157-3 0  9992
2 28415  97.3498 101.9202 0031119 335.3582  24.6170 15.29044029179756
CZ-2C R/B               
1 28480U 04046B   26067.78438400  .00000167  00000+0  76853-4 0  9997
2 28480  98.1984 342.8247 0139835 157.1069 203.6429 14.26991752108372
ARIANE 5 R/B            
1 28499U 04049H   26067.95898230  .00001044  00000+0  12138-3 0  9990
2 28499  98.2626 236.3887 0083986 354.3077   5.7173 14.85264491145688
CZ-2D R/B               
1 28738U 05024B   26067.93970354  .00054063  00000+0  66503-3 0  9990
2 28738  97.3599  83.0579 0005948  49.4679 310.7095 15.60072855139668
ALOS (DAICHI)           
1 28931U 06002A   26067.89024392  .00002002  00000+0  34352-3 0  9992
2 28931  98.1218  23.8497 0000955  57.5121 302.6177 14.69808065 73369
