CCSDS_OMM_VERS = 2.0
CREATION_DATE  = 
ORIGINATOR     = 

OBJECT_NAME    = AQUA
OBJECT_ID      = 2002-022A
CENTER_NAME    = EARTH
REF_FRAME      = TEME
TIME_SYSTEM    = UTC
MEAN_ELEMENT_THEORY = SGP/SGP4

EPOCH          = 2026-03-08T22:23:28.934592
MEAN_MOTION    = 14.61975174
ECCENTRICITY   = .00005619
INCLINATION    = 98.4174
RA_OF_ASC_NODE = 35.2841
ARG_OF_PERICENTER = 76.8428
MEAN_ANOMALY   = 350.9319

EPHEMERIS_TYPE = 0
CLASSIFICATION_TYPE = U
NORAD_CAT_ID   = 27424
ELEMENT_SET_NO = 999
REV_AT_EPOCH   = 26862
BSTAR          = .30081044E-3
MEAN_MOTION_DOT = .1458E-4
MEAN_MOTION_DDOT = 0

CCSDS_OMM_VERS = 2.0
CREATION_DATE  = 
ORIGINATOR     = 

OBJECT_NAME    = CZ-4B R/B
OBJECT_ID      = 2002-024C
CENTER_NAME    = EARTH
REF_FRAME      = TEME
TIME_SYSTEM    = UTC
MEAN_ELEMENT_THEORY = SGP/SGP4

EPOCH          = 2026-03-08T17:43:24.773952
MEAN_MOTION    = 14.14547470
ECCENTRICITY   = .00505237
INCLINATION    = 98.8840
RA_OF_ASC_NODE = 121.1500
ARG_OF_PERICENTER = 26.9039
MEAN_ANOMALY   = 83.9187

EPHEMERIS_TYPE = 0
CLASSIFICATION_TYPE = U
NORAD_CAT_ID   = 27432
ELEMENT_SET_NO = 999
REV_AT_EPOCH   = 22910
BSTAR          = .46646361E-4
MEAN_MOTION_DOT = .46E-6
MEAN_MOTION_DDOT = 0

CCSDS_OMM_VERS = 2.0
CREATION_DATE  = 
ORIGINATOR     = 

OBJECT_NAME    = MIDORI II (ADEOS-II)
OBJECT_ID      = 2002-056A
CENTER_NAME    = EARTH
REF_FRAME      = TEME
TIME_SYSTEM    = UTC
MEAN_ELEMENT_THEORY = SGP/SGP4

EPOCH          = 2026-03-08T21:26:50.920224
MEAN_MOTION    = 14.29284476
ECCENTRICITY   = .00016117
INCLINATION    = 98.7769
RA_OF_ASC_NODE = 26.3657
ARG_OF_PERICENTER = 43.5759
MEAN_ANOMALY   = 316.5549

EPHEMERIS_TYPE = 0
CLASSIFICATION_TYPE = U
NORAD_CAT_ID   = 27597
ELEMENT_SET_NO = 999
REV_AT_EPOCH   = 21018
BSTAR          = .18506771E-3
MEAN_MOTION_DOT = .425E-5
MEAN_MOTION_DDOT = 0

CCSDS_OMM_VERS = 2.0
CREATION_DATE  = 
ORIGINATOR     = 

OBJECT_NAME    = H-2A R/B
OBJECT_ID      = 2002-056E
CENTER_NAME    = EARTH
REF_FRAME      = TEME
TIME_SYSTEM    = UTC
MEAN_ELEMENT_THEORY = SGP/SGP4

EPOCH          = 2026-03-08T20:50:58.333344
MEAN_MOTION    = 14.33760094
ECCENTRICITY   = .00704558
INCLINATION    = 98.3202
RA_OF_ASC_NODE = 28.2655
ARG_OF_PERICENTER = 163.1060
MEAN_ANOMALY   = 252.0482

EPHEMERIS_TYPE = 0
CLASSIFICATION_TYPE = U
NORAD_CAT_ID   = 27601
ELEMENT_SET_NO = 999
REV_AT_EPOCH   = 21399
BSTAR          = .13838019E-3
MEAN_MOTION_DOT = .354E-5
MEAN_MOTION_DDOT = 0

CCSDS_OMM_VERS = 2.0
CREATION_DATE  = 
ORIGINATOR     = 

OBJECT_NAME    = CZ-4B R/B
OBJECT_ID      = 2003-049C
CENTER_NAME    = EARTH
REF_FRAME      = TEME
TIME_SYSTEM    = UTC
MEAN_ELEMENT_THEORY = SGP/SGP4

EPOCH          = 2026-03-08T23:18:06.879744
MEAN_MOTION    = 14.55019500
ECCENTRICITY   = .00472271
INCLINATION    = 98.6879
RA_OF_ASC_NODE = 62.8475
ARG_OF_PERICENTER = 233.1473
MEAN_ANOMALY   = 126.5388

EPHEMERIS_TYPE = 0
CLASSIFICATION_TYPE = U
NORAD_CAT_ID   = 28059
ELEMENT_SET_NO = 999
REV_AT_EPOCH   = 18649
BSTAR          = .12958917E-3
MEAN_MOTION_DOT = .515E-5
MEAN_MOTION_DDOT = 0

CCSDS_OMM_VERS = 2.0
CREATION_DATE  = 
ORIGINATOR     = 

OBJECT_NAME    = CZ-2C R/B
OBJECT_ID      = 2004-012C
CENTER_NAME    = EARTH
REF_FRAME      = TEME
TIME_SYSTEM    = UTC
MEAN_ELEMENT_THEORY = SGP/SGP4

EPOCH          = 2026-03-08T17:07:40.588608
MEAN_MOTION    = 15.64372887
ECCENTRICITY   = .00130043
INCLINATION    = 97.7226
RA_OF_ASC_NODE = 132.9135
ARG_OF_PERICENTER = 313.5636
MEAN_ANOMALY   = 46.4542

EPHEMERIS_TYPE = 0
CLASSIFICATION_TYPE = U
NORAD_CAT_ID   = 28222
ELEMENT_SET_NO = 999
REV_AT_EPOCH   = 20412
BSTAR          = .79990664E-3
MEAN_MOTION_DOT = .77297E-3
MEAN_MOTION_DDOT = 0

CCSDS_OMM_VERS = 2.0
CREATION_DATE  = 
ORIGINATOR     = 

OBJECT_NAME    = SL-16 R/B
OBJECT_ID      = 2004-021B
CENTER_NAME    = EARTH
REF_FRAME      = TEME
TIME_SYSTEM    = UTC
MEAN_ELEMENT_THEORY = SGP/SGP4

EPOCH          = 2026-03-08T21:23:29.179680
MEAN_MOTION    = 14.14598290
ECCENTRICITY   = .00040014
INCLINATION    = 70.9994
RA_OF_ASC_NODE = 234.1679
ARG_OF_PERICENTER = 10.7623
MEAN_ANOMALY   = 349.3584

EPHEMERIS_TYPE = 0
CLASSIFICATION_TYPE = U
NORAD_CAT_ID   = 28353
ELEMENT_SET_NO = 999
REV_AT_EPOCH   = 12272
BSTAR          = -.95082419E-4
MEAN_MOTION_DOT = -.23E-5
MEAN_MOTION_DDOT = 0

CCSDS_OMM_VERS = 2.0
CREATION_DATE  = 
ORIGINATOR     = 

OBJECT_NAME    = CZ-4B R/B
OBJECT_ID      = 2004-035C
CENTER_NAME    = EARTH
REF_FRAME      = TEME
TIME_SYSTEM    = UTC
MEAN_ELEMENT_THEORY = SGP/SGP4

EPOCH          = 2026-03-08T15:58:48.045504
MEAN_MOTION    = 15.29044029
ECCENTRICITY   = .00311191
INCLINATION    = 97.3498
RA_OF_ASC_NODE = 101.9202
ARG_OF_PERICENTER = 335.3582
MEAN_ANOMALY   = 24.6170

EPHEMERIS_TYPE = 0
CLASSIFICATION_TYPE = U
NORAD_CAT_ID   = 28415
ELEMENT_SET_NO = 999
REV_AT_EPOCH   = 17975
BSTAR          = .41156548E-3
MEAN_MOTION_DOT = .11705E-3
MEAN_MOTION_DDOT = 0

CCSDS_OMM_VERS = 2.0
CREATION_DATE  = 
ORIGINATOR     = 

OBJECT_NAME    = CZ-2C R/B
OBJECT_ID      = 2004-046B
CENTER_NAME    = EARTH
REF_FRAME      = TEME
TIME_SYSTEM    = UTC
MEAN_ELEMENT_THEORY = SGP/SGP4

EPOCH          = 2026-03-08T18:49:30.777600
MEAN_MOTION    = 14.26991752
ECCENTRICITY   = .01398358
INCLINATION    = 98.1984
RA_OF_ASC_NODE = 342.8247
ARG_OF_PERICENTER = 157.1069
MEAN_ANOMALY   = 203.6429

EPHEMERIS_TYPE = 0
CLASSIFICATION_TYPE = U
NORAD_CAT_ID   = 28480
ELEMENT_SET_NO = 999
REV_AT_EPOCH   = 10837
BSTAR          = .76852904E-4
MEAN_MOTION_DOT = .167E-5
MEAN_MOTION_DDOT = 0

CCSDS_OMM_VERS = 2.0
CREATION_DATE  = 
ORIGINATOR     = 

OBJECT_NAME    = ARIANE 5 R/B
OBJECT_ID      = 2004-049H
CENTER_NAME    = EARTH
REF_FRAME      = TEME
TIME_SYSTEM    = UTC
MEAN_ELEMENT_THEORY = SGP/SGP4

EPOCH          = 2026-03-08T23:00:56.070720
MEAN_MOTION    = 14.85264491
ECCENTRICITY   = .00839864
INCLINATION    = 98.2626
RA_OF_ASC_NODE = 236.3887
ARG_OF_PERICENTER = 354.3077
MEAN_ANOMALY   = 5.7173

EPHEMERIS_TYPE = 0
CLASSIFICATION_TYPE = U
NORAD_CAT_ID   = 28499
ELEMENT_SET_NO = 999
REV_AT_EPOCH   = 14568
BSTAR          = .12138293E-3
MEAN_MOTION_DOT = .1044E-4
MEAN_MOTION_DDOT = 0

CCSDS_OMM_VERS = 2.0
CREATION_DATE  = 
ORIGINATOR     = 

OBJECT_NAME    = CZ-2D R/B
OBJECT_ID      = 2005-024B
CENTER_NAME    = EARTH
REF_FRAME      = TEME
TIME_SYSTEM    = UTC
MEAN_ELEMENT_THEORY = SGP/SGP4

EPOCH          = 2026-03-08T22:33:10.385856
MEAN_MOTION    = 15.60072855
ECCENTRICITY   = .00059483
INCLINATION    = 97.3599
RA_OF_ASC_NODE = 83.0579
ARG_OF_PERICENTER = 49.4679
MEAN_ANOMALY   = 310.7095

EPHEMERIS_TYPE = 0
CLASSIFICATION_TYPE = U
NORAD_CAT_ID   = 28738
ELEMENT_SET_NO = 999
REV_AT_EPOCH   = 13966
BSTAR          = .66503363E-3
MEAN_MOTION_DOT = .54063E-3
MEAN_MOTION_DDOT = 0

CCSDS_OMM_VERS = 2.0
CREATION_DATE  = 
ORIGINATOR     = 

OBJECT_NAME    = ALOS (DAICHI)
OBJECT_ID      = 2006-002A
CENTER_NAME    = EARTH
REF_FRAME      = TEME
TIME_SYSTEM    = UTC
MEAN_ELEMENT_THEORY = SGP/SGP4

EPOCH          = 2026-03-08T21:21:57.074688
MEAN_MOTION    = 14.69808065
ECCENTRICITY   = .0000955
INCLINATION    = 98.1218
RA_OF_ASC_NODE = 23.8497
ARG_OF_PERICENTER = 57.5121
MEAN_ANOMALY   = 302.6177

EPHEMERIS_TYPE = 0
CLASSIFICATION_TYPE = U
NORAD_CAT_ID   = 28931
ELEMENT_SET_NO = 999
REV_AT_EPOCH   = 7336
BSTAR          = .34352009E-3
MEAN_MOTION_DOT = .2002E-4
MEAN_MOTION_DDOT = 0

